OBJECT_NAME,OBJECT_ID,EPOCH,MEAN_MOTION,ECCENTRICITY,INCLINATION,RA_OF_ASC_NODE,ARG_OF_PERICENTER,MEAN_ANOMALY,EPHEMERIS_TYPE,CLASSIFICATION_TYPE,NORAD_CAT_ID,ELEMENT_SET_NO,REV_AT_EPOCH,BSTAR,MEAN_MOTION_DOT,MEAN_MOTION_DDOT
SATELIOT_2,2024-149BU,2024-10-05T11:18:00.157824,14.91963717,.0001263,97.7450,354.0956,74.2250,285.9108,0,U,60534,999,740,.12579E-2,.127E-3,0
NIGHTJAR,2024-149BV,2024-10-05T04:46:37.138080,14.92209340,.0001397,97.7471,353.8501,60.3907,299.7451,0,U,60535,999,5016,.15438E-2,.15703E-3,0
LEMUR-2-MARHISYAM,2024-149BW,2024-10-04T18:46:52.685472,14.93106262,.0000573,97.7388,353.4182,289.9786,70.1372,0,U,60536,999,729,.29917E-2,.31248E-3,0
SATELIOT_4,2024-149BX,2024-10-05T04:45:22.199040,14.92092415,.0001249,97.7358,353.7849,333.4342,26.6813,0,U,60537,999,735,.10271E-2,.1039E-3,0
2024-149BY,2024-149BY,2024-10-04T04:14:57.316992,14.92857687,.0001863,97.7459,352.8698,30.0088,330.1238,0,U,60538,999,671,.1844E-2,.19086E-3,0
ICEYE-X43,2024-149BZ,2024-10-04T20:11:46.207392,14.92897774,.0003341,97.7401,353.5019,358.9417,1.1795,0,U,60539,999,730,.11392E-2,.1177E-3,0
HAWK-10A,2024-149CA,2024-10-05T04:18:04.299552,14.92634011,.0003492,97.7513,353.9146,4.9449,355.1804,0,U,60540,999,735,.10127E-2,.10385E-3,0
UMBRA-09,2024-149CB,2024-10-05T11:49:51.393216,14.94087201,.000277,97.7439,354.2153,358.4900,1.6311,0,U,60541,999,740,.32533E-2,.34858E-3,0
QPS-SAR-8 (AMATERU-IV),2024-149CC,2024-10-04T21:36:16.176672,14.93314531,.0003697,97.7433,353.6018,9.2862,350.8425,0,U,60542,999,731,.2282E-2,.23925E-3,0
ARCTIC WEATHER SATELLITE,2024-149CD,2024-10-04T20:09:57.141216,14.92204173,.0004813,97.7438,353.5357,23.7692,336.3749,0,U,60543,999,730,.12008E-2,.12196E-3,0
CAPELLA-15 (ACADIA-5),2024-149CE,2024-10-05T11:31:55.093728,14.94755134,.000389,97.7383,354.1999,339.1912,20.9150,0,U,60544,999,740,.46091E-2,.50368E-3,0
HAWK-10B,2024-149CF,2024-10-05T04:17:49.046496,14.92631907,.0005853,97.7442,353.8546,14.4901,345.6485,0,U,60545,999,735,.85409E-3,.8749E-4,0
ICEYE-X39,2024-149CG,2024-10-05T11:59:00.455712,14.93305314,.0004755,97.7396,354.1775,4.7598,355.3666,0,U,60546,999,740,.11784E-2,.12305E-3,0
UMBRA-10,2024-149CH,2024-10-05T05:07:38.330976,14.94458454,.0003882,97.7429,353.9621,356.5107,3.6086,0,U,60547,999,737,.36551E-2,.3957E-3,0
ICEYE-X33,2024-149CJ,2024-10-05T11:50:48.290208,14.93594314,.0004841,97.7425,354.2059,9.7466,350.3846,0,U,60548,999,740,.19374E-2,.20439E-3,0
ICEYE-X40,2024-149CK,2024-10-05T11:53:28.765248,14.93448012,.0005122,97.7409,354.1922,7.3693,352.7601,0,U,60549,999,740,.17272E-2,.18143E-3,0
SATELIOT_1,2024-149CL,2024-10-05T03:37:34.386816,14.93539934,.0007146,97.7354,353.8433,358.9802,1.1402,0,U,60550,999,735,.91863E-3,.9636E-4,0
BRO-14,2024-149CM,2024-10-05T03:37:31.048320,14.93410042,.0007256,97.7474,353.9151,18.5997,341.5487,0,U,60551,999,735,.53036E-3,.5518E-4,0
SATELIOT_3,2024-149CN,2024-10-04T21:01:04.836288,14.93776192,.0008183,97.7423,353.6301,8.4520,351.6836,0,U,60552,999,731,.10094E-2,.1066E-3,0
BRO-15,2024-149CP,2024-10-05T05:02:17.126880,14.93656098,.0008233,97.7405,353.9495,6.0875,354.0443,0,U,60553,999,736,.52355E-3,.5481E-4,0
UM5-RIBAT,2024-149CQ,2024-10-05T04:53:50.563680,14.94149034,.0008377,97.7369,353.9380,355.3034,4.8106,0,U,60554,999,736,.16615E-2,.17769E-3,0
UM5-EOSAT,2024-149CR,2024-10-05T04:49:05.394432,14.94264609,.0008805,97.7438,353.9811,3.8977,356.2310,0,U,60555,999,736,.16654E-2,.17865E-3,0
KANYINI,2024-149CS,2024-10-05T05:01:29.082432,15.18553396,.0001812,97.4381,353.9528,305.2135,54.8930,0,U,60556,999,749,.11257E-2,.23243E-3,0
2024-149CT,2024-149CT,2024-10-05T10:51:47.875680,15.19934640,.0004193,97.4316,354.2012,279.1925,80.8835,0,U,60557,999,753,.21413E-2,.46227E-3,0
FLOCK 4BE-35,2024-149CU,2024-10-04T15:30:32.691744,15.19769946,.0003078,97.4408,353.5016,349.5018,10.6152,0,U,60558,999,741,.12569E-2,.26903E-3,0
FLOCK 4BE-5,2024-149CV,2024-10-05T04:04:56.253792,15.19901624,.0003766,97.4413,354.0294,346.0194,14.0936,0,U,60559,999,749,.12642E-2,.27166E-3,0
FLOCK 4BE-12,2024-149CW,2024-10-03T03:05:45.629376,15.19787457,.0005829,97.4366,351.9740,352.5171,7.5976,0,U,60560,999,718,.10343E-2,.2213E-3,0
FLOCK 4BE-3,2024-149CX,2024-10-04T18:37:55.652448,15.19894903,.0005811,97.4337,353.5872,337.9844,22.1140,0,U,60561,999,743,.13655E-2,.29358E-3,0
HYPERFIELD-1A,2024-149CY,2024-10-05T04:12:10.422432,15.19516023,.0005947,97.4404,354.0137,349.1978,10.9128,0,U,60562,999,749,.93106E-3,.19752E-3,0
FLOCK 4BE-19,2024-149CZ,2024-10-05T03:55:59.354688,15.20239178,.0005846,97.4355,353.9984,345.4055,14.7010,0,U,60563,999,749,.15791E-2,.34326E-3,0
2024-149DA,2024-149DA,2024-10-05T11:32:53.054304,14.95280687,.0001078,97.7438,354.2362,294.6870,65.4239,0,U,60564,999,740,.64168E-2,.71295E-3,0
PTD-4 (LISA-T),2024-149DB,2024-10-04T18:17:51.192384,14.93986907,.0001131,97.7483,353.5041,24.3684,335.7589,0,U,60565,999,729,.36861E-2,.39427E-3,0
2024-149DC,2024-149DC,2024-10-05T05:05:59.983584,14.95295452,.0001225,97.7443,353.9725,289.8237,70.2851,0,U,60566,999,737,.59939E-2,.66572E-3,0
2024-149DD,2024-149DD,2024-10-05T03:28:50.359584,14.95327111,.0001184,97.7440,353.9064,287.1342,72.9749,0,U,60567,999,735,.61823E-2,.68743E-3,0
2024-149DE,2024-149DE,2024-10-05T11:31:38.716608,14.95330116,.0001261,97.7440,354.2363,294.3215,65.7874,0,U,60568,999,740,.6285E-2,.69903E-3,0
2024-149DF,2024-149DF,2024-10-05T11:30:28.545120,14.95372544,.0001162,97.7440,354.2379,291.6918,68.4179,0,U,60569,999,740,.64447E-2,.71778E-3,0
2024-149DG,2024-149DG,2024-10-05T11:31:50.512800,14.95301513,.0001317,97.7441,354.2369,297.4040,62.7047,0,U,60570,999,740,.63617E-2,.70714E-3,0
2024-149DH,2024-149DH,2024-10-05T04:57:56.625696,14.95674347,.0001422,97.7438,353.9791,277.6167,82.4893,0,U,60571,999,736,.65623E-2,.73673E-3,0
2024-149DJ,2024-149DJ,2024-10-05T05:00:59.647680,14.95513046,.0001245,97.7439,353.9761,276.6495,83.4584,0,U,60572,999,736,.63065E-2,.70476E-3,0
ION SCV-012,2024-149DK,2024-10-05T04:30:37.766304,14.92259498,.0003448,97.7426,353.8343,11.2007,348.9288,0,U,60573,999,735,.59497E-3,.6017E-4,0
GNOMES-5,2024-149DL,2024-10-04T18:34:54.059520,14.93015402,.0002819,97.7446,353.4641,19.1837,340.9489,0,U,60574,999,729,.1739E-2,.18065E-3,0
HAWK-10C,2024-149DM,2024-10-05T04:18:18.113184,14.92628783,.0003011,97.7371,353.7867,350.1279,9.9880,0,U,60575,999,735,.80422E-3,.8232E-4,0
LEMUR-2-AHMED-ASRAR,2024-149DN,2024-10-04T17:57:25.453728,14.94293024,.0005173,97.7427,353.4909,320.5069,39.5773,0,U,60576,999,729,.29519E-2,.3178E-3,0
LEMUR-2-LLOYD,2024-149DP,2024-10-05T04:40:45.087456,14.92576184,.0003021,97.7422,353.8272,65.3620,294.7914,0,U,60577,999,735,.30558E-2,.31499E-3,0
LEMUR-2-SQUIRRELCOMM,2024-149DQ,2024-10-04T18:09:28.865376,14.93994875,.0004791,97.7393,353.4562,331.2910,28.8046,0,U,60578,999,729,.29849E-2,.31894E-3,0
LEMUR-2-SIERRINI,2024-149DR,2024-10-05T04:31:00.259680,14.92826327,.0002195,97.7456,353.8564,49.2845,310.8565,0,U,60579,999,735,.30934E-2,.3209E-3,0
SEDNA-1,2024-149DS,2024-10-05T02:11:54.983904,14.93938449,.0006079,97.7422,353.8098,333.5345,26.5564,0,U,60580,999,734,.2966E-2,.31649E-3,0
STARLINK-31844,2024-150A,2024-10-05T05:24:36.283680,15.39604624,.0001258,53.1594,206.1186,116.8714,243.2420,0,U,60583,999,833,-.15106E-3,-.6433E-4,0
STARLINK-32204,2024-150B,2024-10-05T04:37:47.721216,15.39631230,.0001044,53.1603,205.9120,141.8783,218.2296,0,U,60584,999,833,.10545E-3,.3822E-4,0
STARLINK-32130,2024-150C,2024-10-05T05:04:07.658400,15.39571145,.0000981,53.1595,206.0238,107.8031,252.3080,0,U,60585,999,817,-.70684E-4,-.322E-4,0
STARLINK-32173,2024-150D,2024-10-05T12:04:39.686304,15.39600835,.0000872,53.1614,204.2927,65.9818,294.1278,0,U,60586,999,838,.62398E-4,.2096E-4,0
STARLINK-31911,2024-150E,2024-10-05T12:38:33.342720,15.39631959,.0000884,53.1616,204.4432,97.7224,262.3881,0,U,60587,999,826,-.21064E-4,-.1242E-4,0
STARLINK-31994,2024-150F,2024-10-05T11:51:46.042560,15.39584430,.0000851,53.1611,204.2393,114.9601,245.1492,0,U,60588,999,826,-.27401E-3,-.11329E-3,0
STARLINK-32169,2024-150G,2024-10-05T05:17:27.015648,15.39611279,.0000808,53.1600,206.0816,139.3421,220.7645,0,U,60589,999,833,-.63492E-5,-.653E-5,0
STARLINK-32209,2024-150H,2024-10-05T04:30:37.886400,15.39602706,.0001282,53.1605,205.8801,104.0630,256.0518,0,U,60590,999,833,-.19934E-3,-.8359E-4,0
STARLINK-32170,2024-150J,2024-10-05T02:03:49.446144,15.39588180,.0001041,53.1605,206.6680,130.5176,229.5920,0,U,60591,999,819,.29684E-4,.787E-5,0
STARLINK-31497,2024-150K,2024-10-05T12:31:52.499424,15.39605757,.000088,53.1602,204.4091,111.2182,248.8917,0,U,60592,999,838,-.10074E-3,-.4424E-4,0
STARLINK-32161,2024-150L,2024-10-05T12:11:18.442176,15.39661052,.0001939,53.1611,204.3223,82.1594,277.9631,0,U,60593,999,833,.28336E-3,.10966E-3,0
STARLINK-32210,2024-150M,2024-10-05T11:45:04.238496,15.39616506,.0001008,53.1605,204.2080,53.4467,306.6630,0,U,60594,999,838,.35556E-4,.1023E-4,0
STARLINK-32202,2024-150N,2024-10-05T12:45:14.078016,15.39593075,.0001,53.1596,204.4689,105.6745,254.4370,0,U,60595,999,838,-.30217E-3,-.12455E-3,0
STARLINK-31930,2024-150P,2024-10-05T02:37:35.274720,15.39594472,.0002741,53.1616,206.1022,29.7939,330.3221,0,U,60596,999,816,-.138E-3,-.5912E-4,0
STARLINK-32162,2024-150Q,2024-10-05T05:11:14.051904,15.39618352,.0000856,53.1596,206.0552,136.5147,223.5925,0,U,60597,999,833,.16758E-3,.6309E-4,0
STARLINK-32208,2024-150R,2024-10-05T02:10:58.739232,15.39585239,.0001113,53.1604,206.6984,102.2930,257.8199,0,U,60598,999,831,-.2489E-3,-.1033E-3,0
STARLINK-32165,2024-150S,2024-10-05T05:04:33.141216,15.39616940,.0000653,53.1598,206.0266,72.8160,287.2916,0,U,60599,999,833,-.52591E-5,-.609E-5,0
STARLINK-31923,2024-150T,2024-10-05T12:44:43.608192,15.39644657,.0000578,53.1611,204.4653,98.7450,261.3620,0,U,60600,999,838,.36352E-4,.1057E-4,0
STARLINK-31988,2024-150U,2024-10-05T01:43:45.301440,15.39615694,.000083,53.1601,206.5797,147.6354,212.4702,0,U,60601,999,819,.59562E-3,.23495E-3,0
